{
  "type": "FeatureCollection",
  "features": [
    {
      "type": "Feature",
      "properties": {
        "norad_id": 44333,
        "name": "AT&T T-16",
        "group": "intelsat",
        "lat": 0.009593589485027414,
        "lon": -164.96378924675244,
        "alt_km": 35783.58583394656,
        "timestamp": "2025-12-07T14:37:04.877360+00:00",
        "meta_object_name": "AT&T T-16",
        "meta_object_id": "2019-034A",
        "meta_epoch": "2025-12-05T21:46:40.325088",
        "meta_mean_motion": 1.00271318,
        "meta_eccentricity": 6.937e-05,
        "meta_inclination": 0.0289,
        "meta_ra_of_asc_node": 66.1436,
        "meta_arg_of_pericenter": 104.688,
        "meta_mean_anomaly": 129.9319,
        "meta_ephemeris_type": 0,
        "meta_classification_type": "U",
        "meta_norad_cat_id": 44333,
        "meta_element_set_no": 999,
        "meta_rev_at_epoch": 2369,
        "meta_bstar": 0,
        "meta_mean_motion_dot": -1.06e-06,
        "meta_mean_motion_ddot": 0,
        "tle_line1": "1 44333U 19034A   25339.90741117 -.00000106  00000+0  00000+0 0  9992",
        "tle_line2": "2 44333   0.0289  66.1436 0000693 104.6880 129.9319  1.00271318 23696"
      },
      "geometry": {
        "type": "Point",
        "coordinates": [
          -164.96378924675244,
          0.009593589485027414
        ]
      }
    },
    {
      "type": "Feature",
      "properties": {
        "norad_id": 44476,
        "name": "INTELSAT 39 (IS-39)",
        "group": "intelsat",
        "lat": 0.018148443831726542,
        "lon": -2.1642158469256487,
        "alt_km": 35788.35319321447,
        "timestamp": "2025-12-07T14:37:04.877372+00:00",
        "meta_object_name": "INTELSAT 39 (IS-39)",
        "meta_object_id": "2019-049B",
        "meta_epoch": "2025-12-06T20:20:38.721696",
        "meta_mean_motion": 1.00270607,
        "meta_eccentricity": 5.291e-05,
        "meta_inclination": 0.0178,
        "meta_ra_of_asc_node": 326.9296,
        "meta_arg_of_pericenter": 184.8231,
        "meta_mean_anomaly": 291.2367,
        "meta_ephemeris_type": 0,
        "meta_classification_type": "U",
        "meta_norad_cat_id": 44476,
        "meta_element_set_no": 999,
        "meta_rev_at_epoch": 2320,
        "meta_bstar": 0,
        "meta_mean_motion_dot": 3.9e-07,
        "meta_mean_motion_ddot": 0,
        "tle_line1": "1 44476U 19049B   25340.84767039  .00000039  00000+0  00000+0 0  9996",
        "tle_line2": "2 44476   0.0178 326.9296 0000529 184.8231 291.2367  1.00270607 23203"
      },
      "geometry": {
        "type": "Point",
        "coordinates": [
          -2.1642158469256487,
          0.018148443831726542
        ]
      }
    },
    {
      "type": "Feature",
      "properties": {
        "norad_id": 46114,
        "name": "GALAXY 30 (G-30)",
        "group": "intelsat",
        "lat": -0.013041399024156557,
        "lon": 170.85989011848002,
        "alt_km": 35785.209915313055,
        "timestamp": "2025-12-07T14:37:04.877383+00:00",
        "meta_object_name": "GALAXY 30 (G-30)",
        "meta_object_id": "2020-056C",
        "meta_epoch": "2025-12-06T16:29:46.461984",
        "meta_mean_motion": 1.0027044,
        "meta_eccentricity": 0.00024765,
        "meta_inclination": 0.0131,
        "meta_ra_of_asc_node": 322.415,
        "meta_arg_of_pericenter": 291.9013,
        "meta_mean_anomaly": 303.8481,
        "meta_ephemeris_type": 0,
        "meta_classification_type": "U",
        "meta_norad_cat_id": 46114,
        "meta_element_set_no": 999,
        "meta_rev_at_epoch": 1936,
        "meta_bstar": 0,
        "meta_mean_motion_dot": 4.3e-07,
        "meta_mean_motion_ddot": 0,
        "tle_line1": "1 46114U 20056C   25340.68734331  .00000043  00000+0  00000+0 0  9993",
        "tle_line2": "2 46114   0.0131 322.4150 0002476 291.9013 303.8481  1.00270440 19368"
      },
      "geometry": {
        "type": "Point",
        "coordinates": [
          170.85989011848002,
          -0.013041399024156557
        ]
      }
    },
    {
      "type": "Feature",
      "properties": {
        "norad_id": 54026,
        "name": "GALAXY 33 (G-33)",
        "group": "intelsat",
        "lat": 0.016641567550945063,
        "lon": 162.86289511265736,
        "alt_km": 35786.14532992787,
        "timestamp": "2025-12-07T14:37:04.877396+00:00",
        "meta_object_name": "GALAXY 33 (G-33)",
        "meta_object_id": "2022-128A",
        "meta_epoch": "2025-12-06T16:27:24.188832",
        "meta_mean_motion": 1.00270187,
        "meta_eccentricity": 0.0002237,
        "meta_inclination": 0.0188,
        "meta_ra_of_asc_node": 40.2361,
        "meta_arg_of_pericenter": 210.7508,
        "meta_mean_anomaly": 298.5841,
        "meta_ephemeris_type": 0,
        "meta_classification_type": "U",
        "meta_norad_cat_id": 54026,
        "meta_element_set_no": 999,
        "meta_rev_at_epoch": 1181,
        "meta_bstar": 0,
        "meta_mean_motion_dot": 8.5e-07,
        "meta_mean_motion_ddot": 0,
        "tle_line1": "1 54026U 22128A   25340.68569663  .00000085  00000+0  00000+0 0  9996",
        "tle_line2": "2 54026   0.0188  40.2361 0002237 210.7508 298.5841  1.00270187 11813"
      },
      "geometry": {
        "type": "Point",
        "coordinates": [
          162.86289511265736,
          0.016641567550945063
        ]
      }
    },
    {
      "type": "Feature",
      "properties": {
        "norad_id": 54027,
        "name": "GALAXY 34 (G-34)",
        "group": "intelsat",
        "lat": 0.0010155621614883125,
        "lon": 166.88655557562842,
        "alt_km": 35785.15280457689,
        "timestamp": "2025-12-07T14:37:04.877407+00:00",
        "meta_object_name": "GALAXY 34 (G-34)",
        "meta_object_id": "2022-128B",
        "meta_epoch": "2025-12-06T14:45:50.764896",
        "meta_mean_motion": 1.00271245,
        "meta_eccentricity": 0.00012982,
        "meta_inclination": 0.0035,
        "meta_ra_of_asc_node": 358.5566,
        "meta_arg_of_pericenter": 247.7183,
        "meta_mean_anomaly": 281.8466,
        "meta_ephemeris_type": 0,
        "meta_classification_type": "U",
        "meta_norad_cat_id": 54027,
        "meta_element_set_no": 999,
        "meta_rev_at_epoch": 1198,
        "meta_bstar": 0,
        "meta_mean_motion_dot": 6.5e-07,
        "meta_mean_motion_ddot": 0,
        "tle_line1": "1 54027U 22128B   25340.61517089  .00000065  00000+0  00000+0 0  9993",
        "tle_line2": "2 54027   0.0035 358.5566 0001298 247.7183 281.8466  1.00271245 11984"
      },
      "geometry": {
        "type": "Point",
        "coordinates": [
          166.88655557562842,
          0.0010155621614883125
        ]
      }
    },
    {
      "type": "Feature",
      "properties": {
        "norad_id": 54243,
        "name": "GALAXY 31 (G-31)",
        "group": "intelsat",
        "lat": 0.005683451886956324,
        "lon": 174.8710732225359,
        "alt_km": 35786.55352777565,
        "timestamp": "2025-12-07T14:37:04.877419+00:00",
        "meta_object_name": "GALAXY 31 (G-31)",
        "meta_object_id": "2022-153A",
        "meta_epoch": "2025-12-06T16:30:53.853984",
        "meta_mean_motion": 1.00270911,
        "meta_eccentricity": 0.00019629,
        "meta_inclination": 0.0136,
        "meta_ra_of_asc_node": 63.5273,
        "meta_arg_of_pericenter": 203.3363,
        "meta_mean_anomaly": 295.5862,
        "meta_ephemeris_type": 0,
        "meta_classification_type": "U",
        "meta_norad_cat_id": 54243,
        "meta_element_set_no": 999,
        "meta_rev_at_epoch": 520,
        "meta_bstar": 0,
        "meta_mean_motion_dot": 2e-07,
        "meta_mean_motion_ddot": 0,
        "tle_line1": "1 54243U 22153A   25340.68812331  .00000020  00000+0  00000+0 0  9997",
        "tle_line2": "2 54243   0.0136  63.5273 0001962 203.3363 295.5862  1.00270911  5209"
      },
      "geometry": {
        "type": "Point",
        "coordinates": [
          174.8710732225359,
          0.005683451886956324
        ]
      }
    },
    {
      "type": "Feature",
      "properties": {
        "norad_id": 54244,
        "name": "GALAXY 32 (G-32)",
        "group": "intelsat",
        "lat": -0.013651952557057747,
        "lon": -155.13762939066586,
        "alt_km": 35788.44897927484,
        "timestamp": "2025-12-07T14:37:04.877431+00:00",
        "meta_object_name": "GALAXY 32 (G-32)",
        "meta_object_id": "2022-153B",
        "meta_epoch": "2025-12-06T14:56:42.226080",
        "meta_mean_motion": 1.00270597,
        "meta_eccentricity": 0.00026688,
        "meta_inclination": 0.0124,
        "meta_ra_of_asc_node": 15.9632,
        "meta_arg_of_pericenter": 289.3269,
        "meta_mean_anomaly": 263.5475,
        "meta_ephemeris_type": 0,
        "meta_classification_type": "U",
        "meta_norad_cat_id": 54244,
        "meta_element_set_no": 999,
        "meta_rev_at_epoch": 1121,
        "meta_bstar": 0,
        "meta_mean_motion_dot": -1.68e-06,
        "meta_mean_motion_ddot": 0,
        "tle_line1": "1 54244U 22153B   25340.62271095 -.00000168  00000+0  00000+0 0  9992",
        "tle_line2": "2 54244   0.0124  15.9632 0002668 289.3269 263.5475  1.00270597 11213"
      },
      "geometry": {
        "type": "Point",
        "coordinates": [
          -155.13762939066586,
          -0.013651952557057747
        ]
      }
    }
  ]
}